STARLINK-2195           
1 47772U 21017BC  26068.64639940  .00001979  00000+0  78929-4 0  9995
2 47772  53.1613 217.4753 0001569  60.3048 299.8109 15.30196200277651
ION SCV-008             
1 55051U 23001AU  26068.82429008  .00008336  00000+0  31423-3 0  9992
2 55051  97.5676 163.6060 0015192   8.5420 351.6074 15.27226640176169
